{"type": "FeatureCollection", "features": [ {"type": "Feature", "properties": {"norad_id": 66463, "name": "STARLINK-35463", "group": "last-30-days", "lat": -32.14573517215528, "lon": -46.01536450379041, "alt_km": 427.4893065685055, "timestamp": "2025-12-09T05:43:19.508602+00:00", "meta": {"OBJECT_NAME": "STARLINK-35463", "OBJECT_ID": "2025-262H", "EPOCH": "2025-12-08T20:00:01.999008", "MEAN_MOTION": 15.48908611, "ECCENTRICITY": 0.0001151, "INCLINATION": 43.0004, "RA_OF_ASC_NODE": 93.9407, "ARG_OF_PERICENTER": 288.9043, "MEAN_ANOMALY": 202.326, "EPHEMERIS_TYPE": 0, "CLASSIFICATION_TYPE": "U", "NORAD_CAT_ID": 66463, "ELEMENT_SET_NO": 999, "REV_AT_EPOCH": 501, "BSTAR": -0.041794, "MEAN_MOTION_DOT": -0.0205631, "MEAN_MOTION_DDOT": 0}, "tle": {"line1": "1 66463U 25262H   25342.83335647 -.02056310  00000+0 -41794-1 0  9991", "line2": "2 66463  43.0004  93.9407 0001151 288.9043 202.3260 15.48908611  5016"}}, "geometry": {"type": "Point", "coordinates": [-46.01536450379041, -32.14573517215528]}}, {"type": "Feature", "properties": {"norad_id": 66464, "name": "STARLINK-35435", "group": "last-30-days", "lat": -28.794045060871234, "lon": -52.26099813259408, "alt_km": 431.3857510988646, "timestamp": "2025-12-09T05:43:19.508615+00:00", "meta": {"OBJECT_NAME": "STARLINK-35435", "OBJECT_ID": "2025-262J", "EPOCH": "2025-12-08T20:00:01.999008", "MEAN_MOTION": 15.47577818, "ECCENTRICITY": 0.0001157, "INCLINATION": 43.0005, "RA_OF_ASC_NODE": 93.9517, "ARG_OF_PERICENTER": 293.3214, "MEAN_ANOMALY": 193.5021, "EPHEMERIS_TYPE": 0, "CLASSIFICATION_TYPE": "U", "NORAD_CAT_ID": 66464, "ELEMENT_SET_NO": 999, "REV_AT_EPOCH": 501, "BSTAR": -0.043904, "MEAN_MOTION_DOT": -0.02060416, "MEAN_MOTION_DDOT": 0}, "tle": {"line1": "1 66464U 25262J   25342.83335647 -.02060416  00000+0 -43904-1 0  9999", "line2": "2 66464  43.0005  93.9517 0001157 293.3214 193.5021 15.47577818  5012"}}, "geometry": {"type": "Point", "coordinates": [-52.26099813259408, -28.794045060871234]}}, {"type": "Feature", "properties": {"norad_id": 66465, "name": "STARLINK-35448", "group": "last-30-days", "lat": -36.07177482595378, "lon": -37.022452235482056, "alt_km": 419.3262323307572, "timestamp": "2025-12-09T05:43:19.508625+00:00", "meta": {"OBJECT_NAME": "STARLINK-35448", "OBJECT_ID": "2025-262K", "EPOCH": "2025-12-08T20:00:01.999008", "MEAN_MOTION": 15.50953712, "ECCENTRICITY": 0.0001229, "INCLINATION": 43.0005, "RA_OF_ASC_NODE": 93.9284, "ARG_OF_PERICENTER": 278.5243, "MEAN_ANOMALY": 217.5946, "EPHEMERIS_TYPE": 0, "CLASSIFICATION_TYPE": "U", "NORAD_CAT_ID": 66465, "ELEMENT_SET_NO": 999, "REV_AT_EPOCH": 501, "BSTAR": -0.022533, "MEAN_MOTION_DOT": -0.01218932, "MEAN_MOTION_DDOT": 0}, "tle": {"line1": "1 66465U 25262K   25342.83335647 -.01218932  00000+0 -22533-1 0  9992", "line2": "2 66465  43.0005  93.9284 0001229 278.5243 217.5946 15.50953712  5019"}}, "geometry": {"type": "Point", "coordinates": [-37.022452235482056, -36.07177482595378]}}, {"type": "Feature", "properties": {"norad_id": 66466, "name": "STARLINK-35388", "group": "last-30-days", "lat": -36.986058760699805, "lon": -34.52240549684761, "alt_km": 417.1675485541464, "timestamp": "2025-12-09T05:43:19.508636+00:00", "meta": {"OBJECT_NAME": "STARLINK-35388", "OBJECT_ID": "2025-262L", "EPOCH": "2025-12-08T20:00:01.999008", "MEAN_MOTION": 15.50558142, "ECCENTRICITY": 0.0001593, "INCLINATION": 43.0004, "RA_OF_ASC_NODE": 93.9226, "ARG_OF_PERICENTER": 272.2845, "MEAN_ANOMALY": 225.8128, "EPHEMERIS_TYPE": 0, "CLASSIFICATION_TYPE": "U", "NORAD_CAT_ID": 66466, "ELEMENT_SET_NO": 999, "REV_AT_EPOCH": 501, "BSTAR": 0.00093187, "MEAN_MOTION_DOT": 0.00054669, "MEAN_MOTION_DDOT": 0}, "tle": {"line1": "1 66466U 25262L   25342.83335647  .00054669  00000+0  93187-3 0  9990", "line2": "2 66466  43.0004  93.9226 0001593 272.2845 225.8128 15.50558142  5010"}}, "geometry": {"type": "Point", "coordinates": [-34.52240549684761, -36.986058760699805]}}, {"type": "Feature", "properties": {"norad_id": 66467, "name": "STARLINK-35682", "group": "last-30-days", "lat": -34.52194402149169, "lon": -40.85865677354656, "alt_km": 423.5545128205267, "timestamp": "2025-12-09T05:43:19.508648+00:00", "meta": {"OBJECT_NAME": "STARLINK-35682", "OBJECT_ID": "2025-262M", "EPOCH": "2025-12-08T20:00:01.999008", "MEAN_MOTION": 15.50254064, "ECCENTRICITY": 0.0001419, "INCLINATION": 43.0006, "RA_OF_ASC_NODE": 93.9339, "ARG_OF_PERICENTER": 289.9004, "MEAN_ANOMALY": 204.3065, "EPHEMERIS_TYPE": 0, "CLASSIFICATION_TYPE": "U", "NORAD_CAT_ID": 66467, "ELEMENT_SET_NO": 999, "REV_AT_EPOCH": 501, "BSTAR": -0.04011, "MEAN_MOTION_DOT": -0.02069149, "MEAN_MOTION_DDOT": 0}, "tle": {"line1": "1 66467U 25262M   25342.83335647 -.02069149  00000+0 -40110-1 0  9990", "line2": "2 66467  43.0006  93.9339 0001419 289.9004 204.3065 15.50254064  5015"}}, "geometry": {"type": "Point", "coordinates": [-40.85865677354656, -34.52194402149169]}}, {"type": "Feature", "properties": {"norad_id": 66468, "name": "STARLINK-35331", "group": "last-30-days", "lat": -37.73280326998282, "lon": -32.3128631388349, "alt_km": 417.3525389903816, "timestamp": "2025-12-09T05:43:19.508659+00:00", "meta": {"OBJECT_NAME": "STARLINK-35331", "OBJECT_ID": "2025-262N", "EPOCH": "2025-12-08T20:00:01.999008", "MEAN_MOTION": 15.50603883, "ECCENTRICITY": 0.0001565, "INCLINATION": 43.0005, "RA_OF_ASC_NODE": 93.9191, "ARG_OF_PERICENTER": 277.3304, "MEAN_ANOMALY": 222.6756, "EPHEMERIS_TYPE": 0, "CLASSIFICATION_TYPE": "U", "NORAD_CAT_ID": 66468, "ELEMENT_SET_NO": 999, "REV_AT_EPOCH": 501, "BSTAR": -0.00083482, "MEAN_MOTION_DOT": -0.00049054, "MEAN_MOTION_DDOT": 0}, "tle": {"line1": "1 66468U 25262N   25342.83335647 -.00049054  00000+0 -83482-3 0  9993", "line2": "2 66468  43.0005  93.9191 0001565 277.3304 222.6756 15.50603883  5014"}}, "geometry": {"type": "Point", "coordinates": [-32.3128631388349, -37.73280326998282]}}, {"type": "Feature", "properties": {"norad_id": 66469, "name": "STARLINK-35451", "group": "last-30-days", "lat": -39.71416891805122, "lon": -25.420250423137386, "alt_km": 417.48643564857593, "timestamp": "2025-12-09T05:43:19.508669+00:00", "meta": {"OBJECT_NAME": "STARLINK-35451", "OBJECT_ID": "2025-262P", "EPOCH": "2025-12-08T20:00:01.999008", "MEAN_MOTION": 15.50587091, "ECCENTRICITY": 0.00015, "INCLINATION": 43.0005, "RA_OF_ASC_NODE": 93.904, "ARG_OF_PERICENTER": 284.1176, "MEAN_ANOMALY": 221.6467, "EPHEMERIS_TYPE": 0, "CLASSIFICATION_TYPE": "U", "NORAD_CAT_ID": 66469, "ELEMENT_SET_NO": 999, "REV_AT_EPOCH": 501, "BSTAR": -0.00042141, "MEAN_MOTION_DOT": -0.00024992, "MEAN_MOTION_DDOT": 0}, "tle": {"line1": "1 66469U 25262P   25342.83335647 -.00024992  00000+0 -42141-3 0  9995", "line2": "2 66469  43.0005  93.9040 0001500 284.1176 221.6467 15.50587091  5010"}}, "geometry": {"type": "Point", "coordinates": [-25.420250423137386, -39.71416891805122]}}, {"type": "Feature", "properties": {"norad_id": 66470, "name": "STARLINK-35655", "group": "last-30-days", "lat": -38.439255329073674, "lon": -30.053974034361055, "alt_km": 417.35531568570786, "timestamp": "2025-12-09T05:43:19.508679+00:00", "meta": {"OBJECT_NAME": "STARLINK-35655", "OBJECT_ID": "2025-262Q", "EPOCH": "2025-12-08T20:00:01.999008", "MEAN_MOTION": 15.50607045, "ECCENTRICITY": 0.0001549, "INCLINATION": 43.0006, "RA_OF_ASC_NODE": 93.9148, "ARG_OF_PERICENTER": 276.675, "MEAN_ANOMALY": 225.2437, "EPHEMERIS_TYPE": 0, "CLASSIFICATION_TYPE": "U", "NORAD_CAT_ID": 66470, "ELEMENT_SET_NO": 999, "REV_AT_EPOCH": 501, "BSTAR": -0.00080896, "MEAN_MOTION_DOT": -0.00047559, "MEAN_MOTION_DDOT": 0}, "tle": {"line1": "1 66470U 25262Q   25342.83335647 -.00047559  00000+0 -80896-3 0  9990", "line2": "2 66470  43.0006  93.9148 0001549 276.6750 225.2437 15.50607045  5018"}}, "geometry": {"type": "Point", "coordinates": [-30.053974034361055, -38.439255329073674]}}, {"type": "Feature", "properties": {"norad_id": 66471, "name": "STARLINK-35569", "group": "last-30-days", "lat": -39.1035058415754, "lon": -27.745126185502762, "alt_km": 417.47845527206755, "timestamp": "2025-12-09T05:43:19.508689+00:00", "meta": {"OBJECT_NAME": "STARLINK-35569", "OBJECT_ID": "2025-262R", "EPOCH": "2025-12-08T20:00:01.999008", "MEAN_MOTION": 15.50619854, "ECCENTRICITY": 0.0001379, "INCLINATION": 43.0006, "RA_OF_ASC_NODE": 93.9089, "ARG_OF_PERICENTER": 276.2119, "MEAN_ANOMALY": 227.6266, "EPHEMERIS_TYPE": 0, "CLASSIFICATION_TYPE": "U", "NORAD_CAT_ID": 66471, "ELEMENT_SET_NO": 999, "REV_AT_EPOCH": 501, "BSTAR": -0.0012225, "MEAN_MOTION_DOT": -0.00071513, "MEAN_MOTION_DDOT": 0}, "tle": {"line1": "1 66471U 25262R   25342.83335647 -.00071513  00000+0 -12225-2 0  9998", "line2": "2 66471  43.0006  93.9089 0001379 276.2119 227.6266 15.50619854  5016"}}, "geometry": {"type": "Point", "coordinates": [-27.745126185502762, -39.1035058415754]}}, {"type": "Feature", "properties": {"norad_id": 66472, "name": "STARLINK-35567", "group": "last-30-days", "lat": -40.28236487575483, "lon": -23.033903300456778, "alt_km": 417.39343665894194, "timestamp": "2025-12-09T05:43:19.508703+00:00", "meta": {"OBJECT_NAME": "STARLINK-35567", "OBJECT_ID": "2025-262S", "EPOCH": "2025-12-08T20:00:01.999008", "MEAN_MOTION": 15.50609555, "ECCENTRICITY": 0.0001561, "INCLINATION": 43.0006, "RA_OF_ASC_NODE": 93.8998, "ARG_OF_PERICENTER": 277.7006, "MEAN_ANOMALY": 229.9665, "EPHEMERIS_TYPE": 0, "CLASSIFICATION_TYPE": "U", "NORAD_CAT_ID": 66472, "ELEMENT_SET_NO": 999, "REV_AT_EPOCH": 501, "BSTAR": -0.00091436, "MEAN_MOTION_DOT": -0.00053675, "MEAN_MOTION_DDOT": 0}, "tle": {"line1": "1 66472U 25262S   25342.83335647 -.00053675  00000+0 -91436-3 0  9990", "line2": "2 66472  43.0006  93.8998 0001561 277.7006 229.9665 15.50609555  5014"}}, "geometry": {"type": "Point", "coordinates": [-23.033903300456778, -40.28236487575483]}}]}